{"type": "FeatureCollection", "features": [ {"type": "Feature", "properties": {"norad_id": 30208, "name": "FENGYUN 1C DEB", "group": "fengyun-1c-debris", "lat": -17.270290410053764, "lon": 178.2379291485983, "alt_km": 798.0641145581849, "timestamp": "2025-12-26T07:29:18.730333+00:00", "meta": {"OBJECT_NAME": "FENGYUN 1C DEB", "OBJECT_ID": "1999-025VR", "EPOCH": "2025-12-25T22:29:26.468160", "MEAN_MOTION": 14.23554114, "ECCENTRICITY": 0.00331235, "INCLINATION": 98.5621, "RA_OF_ASC_NODE": 0.5577, "ARG_OF_PERICENTER": 230.7156, "MEAN_ANOMALY": 206.5933, "EPHEMERIS_TYPE": 0, "CLASSIFICATION_TYPE": "U", "NORAD_CAT_ID": 30208, "ELEMENT_SET_NO": 999, "REV_AT_EPOCH": 98025, "BSTAR": 0.00044227568, "MEAN_MOTION_DOT": 9.69e-06, "MEAN_MOTION_DDOT": 0}, "tle": {"line1": "1 30208U 99025VR  25359.93711190  .00000969  00000+0  44228-3 0  9999", "line2": "2 30208  98.5621   0.5577 0033123 230.7156 206.5933 14.23554114980258"}}, "geometry": {"type": "Point", "coordinates": [178.2379291485983, -17.270290410053764]}}, {"type": "Feature", "properties": {"norad_id": 30209, "name": "FENGYUN 1C DEB", "group": "fengyun-1c-debris", "lat": 21.215800728252407, "lon": -6.635664285310787, "alt_km": 877.3812216064125, "timestamp": "2025-12-26T07:29:18.730343+00:00", "meta": {"OBJECT_NAME": "FENGYUN 1C DEB", "OBJECT_ID": "1999-025VS", "EPOCH": "2025-12-25T23:08:46.705344", "MEAN_MOTION": 14.12917026, "ECCENTRICITY": 0.00390006, "INCLINATION": 98.7146, "RA_OF_ASC_NODE": 356.4395, "ARG_OF_PERICENTER": 200.6137, "MEAN_ANOMALY": 213.9402, "EPHEMERIS_TYPE": 0, "CLASSIFICATION_TYPE": "U", "NORAD_CAT_ID": 30209, "ELEMENT_SET_NO": 999, "REV_AT_EPOCH": 97393, "BSTAR": 0.00023637999, "MEAN_MOTION_DOT": 4e-06, "MEAN_MOTION_DDOT": 0}, "tle": {"line1": "1 30209U 99025VS  25359.96442946  .00000400  00000+0  23638-3 0  9995", "line2": "2 30209  98.7146 356.4395 0039000 200.6137 213.9402 14.12917026973932"}}, "geometry": {"type": "Point", "coordinates": [-6.635664285310787, 21.215800728252407]}}, {"type": "Feature", "properties": {"norad_id": 30210, "name": "FENGYUN 1C DEB", "group": "fengyun-1c-debris", "lat": 15.930861176596196, "lon": -127.04620227484911, "alt_km": 847.9758549092458, "timestamp": "2025-12-26T07:29:18.730353+00:00", "meta": {"OBJECT_NAME": "FENGYUN 1C DEB", "OBJECT_ID": "1999-025VT", "EPOCH": "2025-12-25T17:39:18.090720", "MEAN_MOTION": 14.0829516, "ECCENTRICITY": 0.00567307, "INCLINATION": 99.189, "RA_OF_ASC_NODE": 49.7188, "ARG_OF_PERICENTER": 100.7716, "MEAN_ANOMALY": 21.7429, "EPHEMERIS_TYPE": 0, "CLASSIFICATION_TYPE": "U", "NORAD_CAT_ID": 30210, "ELEMENT_SET_NO": 999, "REV_AT_EPOCH": 96940, "BSTAR": 0.00068658826, "MEAN_MOTION_DOT": 1.145e-05, "MEAN_MOTION_DDOT": 0}, "tle": {"line1": "1 30210U 99025VT  25359.73562605  .00001145  00000+0  68659-3 0  9996", "line2": "2 30210  99.1890  49.7188 0056730 100.7716  21.7429 14.08295160969403"}}, "geometry": {"type": "Point", "coordinates": [-127.04620227484911, 15.930861176596196]}}, {"type": "Feature", "properties": {"norad_id": 30212, "name": "FENGYUN 1C DEB", "group": "fengyun-1c-debris", "lat": -45.10764677682194, "lon": 36.45092946038893, "alt_km": 846.8150595111783, "timestamp": "2025-12-26T07:29:18.730364+00:00", "meta": {"OBJECT_NAME": "FENGYUN 1C DEB", "OBJECT_ID": "1999-025VV", "EPOCH": "2025-12-25T14:56:30.844608", "MEAN_MOTION": 13.97065977, "ECCENTRICITY": 0.0096975, "INCLINATION": 99.4564, "RA_OF_ASC_NODE": 225.3725, "ARG_OF_PERICENTER": 202.0401, "MEAN_ANOMALY": 157.6577, "EPHEMERIS_TYPE": 0, "CLASSIFICATION_TYPE": "U", "NORAD_CAT_ID": 30212, "ELEMENT_SET_NO": 999, "REV_AT_EPOCH": 96405, "BSTAR": 0.00047375, "MEAN_MOTION_DOT": 6.41e-06, "MEAN_MOTION_DDOT": 0}, "tle": {"line1": "1 30212U 99025VV  25359.62257922  .00000641  00000+0  47375-3 0  9991", "line2": "2 30212  99.4564 225.3725 0096975 202.0401 157.6577 13.97065977964054"}}, "geometry": {"type": "Point", "coordinates": [36.45092946038893, -45.10764677682194]}}, {"type": "Feature", "properties": {"norad_id": 30213, "name": "FENGYUN 1C DEB", "group": "fengyun-1c-debris", "lat": -71.23212255354022, "lon": 105.19499756961424, "alt_km": 851.686143966831, "timestamp": "2025-12-26T07:29:18.730374+00:00", "meta": {"OBJECT_NAME": "FENGYUN 1C DEB", "OBJECT_ID": "1999-025VW", "EPOCH": "2025-12-25T15:35:54.758976", "MEAN_MOTION": 14.11647765, "ECCENTRICITY": 0.0072589, "INCLINATION": 99.1219, "RA_OF_ASC_NODE": 76.3042, "ARG_OF_PERICENTER": 208.1444, "MEAN_ANOMALY": 314.7347, "EPHEMERIS_TYPE": 0, "CLASSIFICATION_TYPE": "U", "NORAD_CAT_ID": 30213, "ELEMENT_SET_NO": 999, "REV_AT_EPOCH": 96697, "BSTAR": 0.0015596, "MEAN_MOTION_DOT": 2.862e-05, "MEAN_MOTION_DDOT": 0}, "tle": {"line1": "1 30213U 99025VW  25359.64993934  .00002862  00000+0  15596-2 0  9990", "line2": "2 30213  99.1219  76.3042 0072589 208.1444 314.7347 14.11647765966976"}}, "geometry": {"type": "Point", "coordinates": [105.19499756961424, -71.23212255354022]}}, {"type": "Feature", "properties": {"norad_id": 30214, "name": "FENGYUN 1C DEB", "group": "fengyun-1c-debris", "lat": -34.319254437064416, "lon": 79.52874100720261, "alt_km": 782.9377520473172, "timestamp": "2025-12-26T07:29:18.730384+00:00", "meta": {"OBJECT_NAME": "FENGYUN 1C DEB", "OBJECT_ID": "1999-025VX", "EPOCH": "2025-12-25T21:52:02.882208", "MEAN_MOTION": 14.31027904, "ECCENTRICITY": 0.00201705, "INCLINATION": 98.723, "RA_OF_ASC_NODE": 73.1104, "ARG_OF_PERICENTER": 3.7365, "MEAN_ANOMALY": 57.6974, "EPHEMERIS_TYPE": 0, "CLASSIFICATION_TYPE": "U", "NORAD_CAT_ID": 30214, "ELEMENT_SET_NO": 999, "REV_AT_EPOCH": 97755, "BSTAR": 0.0016078004, "MEAN_MOTION_DOT": 4.199e-05, "MEAN_MOTION_DDOT": 0}, "tle": {"line1": "1 30214U 99025VX  25359.91114447  .00004199  00000+0  16078-2 0  9996", "line2": "2 30214  98.7230  73.1104 0020170   3.7365  57.6974 14.31027904977553"}}, "geometry": {"type": "Point", "coordinates": [79.52874100720261, -34.319254437064416]}}, {"type": "Feature", "properties": {"norad_id": 30217, "name": "FENGYUN 1C DEB", "group": "fengyun-1c-debris", "lat": 1.4964682900017188, "lon": 163.77314218357637, "alt_km": 858.0621223426842, "timestamp": "2025-12-26T07:29:18.730394+00:00", "meta": {"OBJECT_NAME": "FENGYUN 1C DEB", "OBJECT_ID": "1999-025WA", "EPOCH": "2025-12-25T22:14:26.151648", "MEAN_MOTION": 14.24851971, "ECCENTRICITY": 0.01406453, "INCLINATION": 98.4329, "RA_OF_ASC_NODE": 343.1808, "ARG_OF_PERICENTER": 61.5034, "MEAN_ANOMALY": 300.0227, "EPHEMERIS_TYPE": 0, "CLASSIFICATION_TYPE": "U", "NORAD_CAT_ID": 30217, "ELEMENT_SET_NO": 999, "REV_AT_EPOCH": 98261, "BSTAR": 0.00027997721, "MEAN_MOTION_DOT": 6.83e-06, "MEAN_MOTION_DDOT": 0}, "tle": {"line1": "1 30217U 99025WA  25359.92669157  .00000683  00000+0  27998-3 0  9991", "line2": "2 30217  98.4329 343.1808 0140645  61.5034 300.0227 14.24851971982618"}}, "geometry": {"type": "Point", "coordinates": [163.77314218357637, 1.4964682900017188]}}, {"type": "Feature", "properties": {"norad_id": 30218, "name": "FENGYUN 1C DEB", "group": "fengyun-1c-debris", "lat": -59.77222793860194, "lon": -105.66171329918839, "alt_km": 756.1020268860539, "timestamp": "2025-12-26T07:29:18.730405+00:00", "meta": {"OBJECT_NAME": "FENGYUN 1C DEB", "OBJECT_ID": "1999-025WB", "EPOCH": "2025-12-25T17:38:09.444192", "MEAN_MOTION": 14.28965745, "ECCENTRICITY": 0.00713363, "INCLINATION": 98.9856, "RA_OF_ASC_NODE": 89.5009, "ARG_OF_PERICENTER": 216.861, "MEAN_ANOMALY": 296.1775, "EPHEMERIS_TYPE": 0, "CLASSIFICATION_TYPE": "U", "NORAD_CAT_ID": 30218, "ELEMENT_SET_NO": 999, "REV_AT_EPOCH": 97294, "BSTAR": 0.0027131511, "MEAN_MOTION_DOT": 7.009e-05, "MEAN_MOTION_DDOT": 0}, "tle": {"line1": "1 30218U 99025WB  25359.73483153  .00007009  00000+0  27132-2 0  9999", "line2": "2 30218  98.9856  89.5009 0071336 216.8610 296.1775 14.28965745972945"}}, "geometry": {"type": "Point", "coordinates": [-105.66171329918839, -59.77222793860194]}}, {"type": "Feature", "properties": {"norad_id": 30221, "name": "FENGYUN 1C DEB", "group": "fengyun-1c-debris", "lat": -74.13432603188363, "lon": -124.96650103330275, "alt_km": 770.3282938014872, "timestamp": "2025-12-26T07:29:18.730415+00:00", "meta": {"OBJECT_NAME": "FENGYUN 1C DEB", "OBJECT_ID": "1999-025WE", "EPOCH": "2025-12-25T17:00:35.919648", "MEAN_MOTION": 14.45834455, "ECCENTRICITY": 0.01447688, "INCLINATION": 98.9554, "RA_OF_ASC_NODE": 88.0961, "ARG_OF_PERICENTER": 2.7589, "MEAN_ANOMALY": 357.4367, "EPHEMERIS_TYPE": 0, "CLASSIFICATION_TYPE": "U", "NORAD_CAT_ID": 30221, "ELEMENT_SET_NO": 999, "REV_AT_EPOCH": 99588, "BSTAR": 0.00020487055, "MEAN_MOTION_DOT": 7.71e-06, "MEAN_MOTION_DDOT": 0}, "tle": {"line1": "1 30221U 99025WE  25359.70874907  .00000771  00000+0  20487-3 0  9997", "line2": "2 30221  98.9554  88.0961 0144768   2.7589 357.4367 14.45834455995880"}}, "geometry": {"type": "Point", "coordinates": [-124.96650103330275, -74.13432603188363]}}, {"type": "Feature", "properties": {"norad_id": 30222, "name": "FENGYUN 1C DEB", "group": "fengyun-1c-debris", "lat": -2.7451267418225505, "lon": 33.75699002615555, "alt_km": 855.9211311693853, "timestamp": "2025-12-26T07:29:18.730425+00:00", "meta": {"OBJECT_NAME": "FENGYUN 1C DEB", "OBJECT_ID": "1999-025WF", "EPOCH": "2025-12-25T14:57:42.142752", "MEAN_MOTION": 14.04079268, "ECCENTRICITY": 0.0037243, "INCLINATION": 98.84, "RA_OF_ASC_NODE": 32.6596, "ARG_OF_PERICENTER": 1.1966, "MEAN_ANOMALY": 117.334, "EPHEMERIS_TYPE": 0, "CLASSIFICATION_TYPE": "U", "NORAD_CAT_ID": 30222, "ELEMENT_SET_NO": 999, "REV_AT_EPOCH": 97019, "BSTAR": 0.00026298, "MEAN_MOTION_DOT": 3.76e-06, "MEAN_MOTION_DDOT": 0}, "tle": {"line1": "1 30222U 99025WF  25359.62340443  .00000376  00000+0  26298-3 0  9999", "line2": "2 30222  98.8400  32.6596 0037243   1.1966 117.3340 14.04079268970199"}}, "geometry": {"type": "Point", "coordinates": [33.75699002615555, -2.7451267418225505]}}]}